BANDWAGON-2 OBJECT D    
1 62380U 24247D   26068.52261193  .00011259  00000+0  40119-3 0  9994
2 62380  44.9954 115.6710 0003488 351.1453   8.9368 15.29076102 67732
STARLINK-35438          
1 66347U 25253AE  26068.46508853  .00017131  00000+0  63054-3 0  9997
2 66347  43.0014 213.4659 0001695 255.7018 104.3646 15.27582677 20218
